ONEWEB-0202             
1 48224U 21031Q   21133.50001157 -.00008190  00000-0 -19447-3 0  9994
2 48224  87.3992 306.9050 0009635 195.5612 118.8675 15.41879761  2057
ONEWEB-0204             
1 48225U 21031R   21133.83334491 -.01369375  00000-0 -37608-1 0  9994
2 48225  87.4043 306.8014 0005935 183.4047 102.6846 15.40066999  2750
ONEWEB-0205             
1 48226U 21031S   21134.16667824 -.01465620  00000-0 -49246-1 0  9992
2 48226  87.4046 306.6884 0010031 193.4379  35.4580 15.33990273  2794
ONEWEB-0206             
1 48227U 21031T   21134.16667824 -.01475794  00000-0 -56819-1 0  9990
2 48227  87.4009 306.7009 0005994 192.1053 309.1026 15.29732954  2792
ONEWEB-0182             
1 48228U 21031U   21134.16667824 -.01444352  00000-0 -39300-1 0  9993
2 48228  87.4008 306.6729 0005732 194.1061 153.1103 15.40504173  2809
ONEWEB-0186             
1 48229U 21031V   21134.16667824 -.00043294  00000-0 -10843-2 0  9995
2 48229  87.3986 306.6792 0007535 172.3149 135.4970 15.40278398  2804
ONEWEB-0181             
1 48230U 21031W   21134.16667824 -.01467569  00000-0 -51438-1 0  9997
2 48230  87.4049 306.6895 0008466 201.8730   3.5456 15.32686227  2796
ONEWEB-0188             
1 48231U 21031X   21134.16667824 -.01469777  00000-0 -61783-1 0  9995
2 48231  87.3980 306.7155 0006928 179.3390 257.0550 15.26844784  2790
ONEWEB-0220             
1 48232U 21031Y   21133.50001157 -.00008333  00000-0 -19482-3 0  9991
2 48232  87.3981 306.8983 0010765 182.0250 160.8524 15.42330259  2058
ONEWEB-0165             
1 48233U 21031Z   21134.16667824 -.00039981  00000-0 -95225-3 0  9996
2 48233  87.3978 306.6609 0009282 193.4588 211.3206 15.41773506  2807
ONEWEB-0199             
1 48234U 21031AA  21134.16667824 -.01463093  00000-0 -43197-1 0  9992
2 48234  87.4050 306.6811 0006888 174.2557 139.3371 15.38046285  2790
ONEWEB-0203             
1 48235U 21031AB  21134.16667824 -.01468766  00000-0 -49010-1 0  9995
2 48235  87.4075 306.6939 0009590 193.0450  44.5577 15.34222577  2794
ONEWEB-0197             
1 48236U 21031AC  21134.16667824 -.01472576  00000-0 -55161-1 0  9994
2 48236  87.4040 306.6996 0006451 203.8002 320.9686 15.30603642  2790
ONEWEB-0194             
1 48237U 21031AD  21134.16667824 -.01283691  00000-0 -33997-1 0  9996
2 48237  87.4001 306.6712 0006350 201.4475 162.2826 15.41443446  2799
ONEWEB-0193             
1 48238U 21031AE  21133.50001157 -.01440063  00000-0 -41094-1 0  9990
2 48238  87.4015 306.9203 0008135 178.3951  26.9884 15.39020207  1766
ONEWEB-0191             
1 48239U 21031AF  21134.16667824 -.01480593  00000-0 -54580-1 0  9999
2 48239  87.4044 306.6963 0007475 205.5321 333.3735 15.31121788  2791
