[
{
"OBJECT_NAME": "ONEWEB-0202",
"OBJECT_ID": "2021-031Q",
"EPOCH": "2021-05-13T12:00:00.999648",
"MEAN_MOTION": 15.41879761,
"ECCENTRICITY": 0.0009635,
"INCLINATION": 87.3992,
"RA_OF_ASC_NODE": 306.905,
"ARG_OF_PERICENTER": 195.5612,
"MEAN_ANOMALY": 118.8675,
"EPHEMERIS_TYPE": 0,
"CLASSIFICATION_TYPE": "U",
"NORAD_CAT_ID": 48224,
"ELEMENT_SET_NO": 999,
"REV_AT_EPOCH": 205,
"BSTAR": -0.00019447,
"MEAN_MOTION_DOT": -0.0000819,
"MEAN_MOTION_DDOT": 0
},
{
"OBJECT_NAME": "ONEWEB-0204",
"OBJECT_ID": "2021-031R",
"EPOCH": "2021-05-13T20:00:01.000224",
"MEAN_MOTION": 15.40066999,
"ECCENTRICITY": 0.0005935,
"INCLINATION": 87.4043,
"RA_OF_ASC_NODE": 306.8014,
"ARG_OF_PERICENTER": 183.4047,
"MEAN_ANOMALY": 102.6846,
"EPHEMERIS_TYPE": 0,
"CLASSIFICATION_TYPE": "U",
"NORAD_CAT_ID": 48225,
"ELEMENT_SET_NO": 999,
"REV_AT_EPOCH": 275,
"BSTAR": -0.037608,
"MEAN_MOTION_DOT": -0.01369375,
"MEAN_MOTION_DDOT": 0
},
{
"OBJECT_NAME": "ONEWEB-0205",
"OBJECT_ID": "2021-031S",
"EPOCH": "2021-05-14T04:00:00.999936",
"MEAN_MOTION": 15.33990273,
"ECCENTRICITY": 0.0010031,
"INCLINATION": 87.4046,
"RA_OF_ASC_NODE": 306.6884,
"ARG_OF_PERICENTER": 193.4379,
"MEAN_ANOMALY": 35.458,
"EPHEMERIS_TYPE": 0,
"CLASSIFICATION_TYPE": "U",
"NORAD_CAT_ID": 48226,
"ELEMENT_SET_NO": 999,
"REV_AT_EPOCH": 279,
"BSTAR": -0.049246,
"MEAN_MOTION_DOT": -0.0146562,
"MEAN_MOTION_DDOT": 0
},
{
"OBJECT_NAME": "ONEWEB-0206",
"OBJECT_ID": "2021-031T",
"EPOCH": "2021-05-14T04:00:00.999936",
"MEAN_MOTION": 15.29732954,
"ECCENTRICITY": 0.0005994,
"INCLINATION": 87.4009,
"RA_OF_ASC_NODE": 306.7009,
"ARG_OF_PERICENTER": 192.1053,
"MEAN_ANOMALY": 309.1026,
"EPHEMERIS_TYPE": 0,
"CLASSIFICATION_TYPE": "U",
"NORAD_CAT_ID": 48227,
"ELEMENT_SET_NO": 999,
"REV_AT_EPOCH": 279,
"BSTAR": -0.056819,
"MEAN_MOTION_DOT": -0.01475794,
"MEAN_MOTION_DDOT": 0
},
{
"OBJECT_NAME": "ONEWEB-0182",
"OBJECT_ID": "2021-031U",
"EPOCH": "2021-05-14T04:00:00.999936",
"MEAN_MOTION": 15.40504173,
"ECCENTRICITY": 0.0005732,
"INCLINATION": 87.4008,
"RA_OF_ASC_NODE": 306.6729,
"ARG_OF_PERICENTER": 194.1061,
"MEAN_ANOMALY": 153.1103,
"EPHEMERIS_TYPE": 0,
"CLASSIFICATION_TYPE": "U",
"NORAD_CAT_ID": 48228,
"ELEMENT_SET_NO": 999,
"REV_AT_EPOCH": 280,
"BSTAR": -0.0393,
"MEAN_MOTION_DOT": -0.01444352,
"MEAN_MOTION_DDOT": 0
},
{
"OBJECT_NAME": "ONEWEB-0186",
"OBJECT_ID": "2021-031V",
"EPOCH": "2021-05-14T04:00:00.999936",
"MEAN_MOTION": 15.40278398,
"ECCENTRICITY": 0.0007535,
"INCLINATION": 87.3986,
"RA_OF_ASC_NODE": 306.6792,
"ARG_OF_PERICENTER": 172.3149,
"MEAN_ANOMALY": 135.497,
"EPHEMERIS_TYPE": 0,
"CLASSIFICATION_TYPE": "U",
"NORAD_CAT_ID": 48229,
"ELEMENT_SET_NO": 999,
"REV_AT_EPOCH": 280,
"BSTAR": -0.0010843,
"MEAN_MOTION_DOT": -0.00043294,
"MEAN_MOTION_DDOT": 0
},
{
"OBJECT_NAME": "ONEWEB-0181",
"OBJECT_ID": "2021-031W",
"EPOCH": "2021-05-14T04:00:00.999936",
"MEAN_MOTION": 15.32686227,
"ECCENTRICITY": 0.0008466,
"INCLINATION": 87.4049,
"RA_OF_ASC_NODE": 306.6895,
"ARG_OF_PERICENTER": 201.873,
"MEAN_ANOMALY": 3.5456,
"EPHEMERIS_TYPE": 0,
"CLASSIFICATION_TYPE": "U",
"NORAD_CAT_ID": 48230,
"ELEMENT_SET_NO": 999,
"REV_AT_EPOCH": 279,
"BSTAR": -0.051438,
"MEAN_MOTION_DOT": -0.01467569,
"MEAN_MOTION_DDOT": 0
},
{
"OBJECT_NAME": "ONEWEB-0188",
"OBJECT_ID": "2021-031X",
"EPOCH": "2021-05-14T04:00:00.999936",
"MEAN_MOTION": 15.26844784,
"ECCENTRICITY": 0.0006928,
"INCLINATION": 87.398,
"RA_OF_ASC_NODE": 306.7155,
"ARG_OF_PERICENTER": 179.339,
"MEAN_ANOMALY": 257.055,
"EPHEMERIS_TYPE": 0,
"CLASSIFICATION_TYPE": "U",
"NORAD_CAT_ID": 48231,
"ELEMENT_SET_NO": 999,
"REV_AT_EPOCH": 279,
"BSTAR": -0.061783,
"MEAN_MOTION_DOT": -0.01469777,
"MEAN_MOTION_DDOT": 0
},
{
"OBJECT_NAME": "ONEWEB-0220",
"OBJECT_ID": "2021-031Y",
"EPOCH": "2021-05-13T12:00:00.999648",
"MEAN_MOTION": 15.42330259,
"ECCENTRICITY": 0.0010765,
"INCLINATION": 87.3981,
"RA_OF_ASC_NODE": 306.8983,
"ARG_OF_PERICENTER": 182.025,
"MEAN_ANOMALY": 160.8524,
"EPHEMERIS_TYPE": 0,
"CLASSIFICATION_TYPE": "U",
"NORAD_CAT_ID": 48232,
"ELEMENT_SET_NO": 999,
"REV_AT_EPOCH": 205,
"BSTAR": -0.00019482,
"MEAN_MOTION_DOT": -0.00008333,
"MEAN_MOTION_DDOT": 0
},
{
"OBJECT_NAME": "ONEWEB-0165",
"OBJECT_ID": "2021-031Z",
"EPOCH": "2021-05-14T04:00:00.999936",
"MEAN_MOTION": 15.41773506,
"ECCENTRICITY": 0.0009282,
"INCLINATION": 87.3978,
"RA_OF_ASC_NODE": 306.6609,
"ARG_OF_PERICENTER": 193.4588,
"MEAN_ANOMALY": 211.3206,
"EPHEMERIS_TYPE": 0,
"CLASSIFICATION_TYPE": "U",
"NORAD_CAT_ID": 48233,
"ELEMENT_SET_NO": 999,
"REV_AT_EPOCH": 280,
"BSTAR": -0.00095225,
"MEAN_MOTION_DOT": -0.00039981,
"MEAN_MOTION_DDOT": 0
},
{
"OBJECT_NAME": "ONEWEB-0199",
"OBJECT_ID": "2021-031AA",
"EPOCH": "2021-05-14T04:00:00.999936",
"MEAN_MOTION": 15.38046285,
"ECCENTRICITY": 0.0006888,
"INCLINATION": 87.405,
"RA_OF_ASC_NODE": 306.6811,
"ARG_OF_PERICENTER": 174.2557,
"MEAN_ANOMALY": 139.3371,
"EPHEMERIS_TYPE": 0,
"CLASSIFICATION_TYPE": "U",
"NORAD_CAT_ID": 48234,
"ELEMENT_SET_NO": 999,
"REV_AT_EPOCH": 279,
"BSTAR": -0.043197,
"MEAN_MOTION_DOT": -0.01463093,
"MEAN_MOTION_DDOT": 0
},
{
"OBJECT_NAME": "ONEWEB-0203",
"OBJECT_ID": "2021-031AB",
"EPOCH": "2021-05-14T04:00:00.999936",
"MEAN_MOTION": 15.34222577,
"ECCENTRICITY": 0.000959,
"INCLINATION": 87.4075,
"RA_OF_ASC_NODE": 306.6939,
"ARG_OF_PERICENTER": 193.045,
"MEAN_ANOMALY": 44.5577,
"EPHEMERIS_TYPE": 0,
"CLASSIFICATION_TYPE": "U",
"NORAD_CAT_ID": 48235,
"ELEMENT_SET_NO": 999,
"REV_AT_EPOCH": 279,
"BSTAR": -0.04901,
"MEAN_MOTION_DOT": -0.01468766,
"MEAN_MOTION_DDOT": 0
},
{
"OBJECT_NAME": "ONEWEB-0197",
"OBJECT_ID": "2021-031AC",
"EPOCH": "2021-05-14T04:00:00.999936",
"MEAN_MOTION": 15.30603642,
"ECCENTRICITY": 0.0006451,
"INCLINATION": 87.404,
"RA_OF_ASC_NODE": 306.6996,
"ARG_OF_PERICENTER": 203.8002,
"MEAN_ANOMALY": 320.9686,
"EPHEMERIS_TYPE": 0,
"CLASSIFICATION_TYPE": "U",
"NORAD_CAT_ID": 48236,
"ELEMENT_SET_NO": 999,
"REV_AT_EPOCH": 279,
"BSTAR": -0.055161,
"MEAN_MOTION_DOT": -0.01472576,
"MEAN_MOTION_DDOT": 0
},
{
"OBJECT_NAME": "ONEWEB-0194",
"OBJECT_ID": "2021-031AD",
"EPOCH": "2021-05-14T04:00:00.999936",
"MEAN_MOTION": 15.41443446,
"ECCENTRICITY": 0.000635,
"INCLINATION": 87.4001,
"RA_OF_ASC_NODE": 306.6712,
"ARG_OF_PERICENTER": 201.4475,
"MEAN_ANOMALY": 162.2826,
"EPHEMERIS_TYPE": 0,
"CLASSIFICATION_TYPE": "U",
"NORAD_CAT_ID": 48237,
"ELEMENT_SET_NO": 999,
"REV_AT_EPOCH": 279,
"BSTAR": -0.033997,
"MEAN_MOTION_DOT": -0.01283691,
"MEAN_MOTION_DDOT": 0
},
{
"OBJECT_NAME": "ONEWEB-0193",
"OBJECT_ID": "2021-031AE",
"EPOCH": "2021-05-13T12:00:00.999648",
"MEAN_MOTION": 15.39020207,
"ECCENTRICITY": 0.0008135,
"INCLINATION": 87.4015,
"RA_OF_ASC_NODE": 306.9203,
"ARG_OF_PERICENTER": 178.3951,
"MEAN_ANOMALY": 26.9884,
"EPHEMERIS_TYPE": 0,
"CLASSIFICATION_TYPE": "U",
"NORAD_CAT_ID": 48238,
"ELEMENT_SET_NO": 999,
"REV_AT_EPOCH": 176,
"BSTAR": -0.041094,
"MEAN_MOTION_DOT": -0.01440063,
"MEAN_MOTION_DDOT": 0
},
{
"OBJECT_NAME": "ONEWEB-0191",
"OBJECT_ID": "2021-031AF",
"EPOCH": "2021-05-14T04:00:00.999936",
"MEAN_MOTION": 15.31121788,
"ECCENTRICITY": 0.0007475,
"INCLINATION": 87.4044,
"RA_OF_ASC_NODE": 306.6963,
"ARG_OF_PERICENTER": 205.5321,
"MEAN_ANOMALY": 333.3735,
"EPHEMERIS_TYPE": 0,
"CLASSIFICATION_TYPE": "U",
"NORAD_CAT_ID": 48239,
"ELEMENT_SET_NO": 999,
"REV_AT_EPOCH": 279,
"BSTAR": -0.05458,
"MEAN_MOTION_DOT": -0.01480593,
"MEAN_MOTION_DDOT": 0
}
]